EUTELSAT 53A            
1 40277U 14064A   26160.20980113  .00000115  00000+0  00000+0 0  9999
2 40277   0.0145 284.0351 0000791 258.5594 203.5265  1.00270479 41480
GSAT-16                 
1 40332U 14078A   26161.48586550  .00000102  00000+0  00000+0 0  9990
2 40332   0.0716  92.2422 0007657 353.5465  43.0470  1.00272450 42044
DIRECTV 14              
1 40333U 14078B   26160.05357880 -.00000109  00000+0  00000+0 0  9993
2 40333   0.0091   1.3268 0000235 206.1301 330.0282  1.00271044 41965
YAMAL 401               
1 40345U 14082A   26160.73080479 -.00000212  00000+0  00000+0 0  9998
2 40345   0.0122 251.8924 0000587 232.2841 126.9842  1.00273523 41848
ASTRA 2G                
1 40364U 14089A   26161.20290472  .00000167  00000+0  00000+0 0  9993
2 40364   0.0525  19.0031 0004829  42.3125 298.4832  1.00271651 41896
FENGYUN 2G              
1 40367U 14090A   26160.83345512 -.00000287  00000+0  00000+0 0  9996
2 40367   5.6193  72.9049 0003515 153.2834  71.6860  1.00276216 41926
MUOS-3                  
1 40374U 15002A   26161.33696773 -.00000113  00000+0  00000+0 0  9990
2 40374   4.5083  43.4972 0051646 178.3855 142.6888  1.00271928 41516
INMARSAT 5-F2           
1 40384U 15005A   26161.32908103 -.00000268  00000+0  00000+0 0  9997
2 40384   0.0182 351.4709 0000483 250.7950  79.8962  1.00271617 40925
ABS-3A                  
1 40424U 15010A   26161.16642262 -.00000009  00000+0  00000+0 0  9994
2 40424   0.0057  21.9934 0001893  14.1874 279.2427  1.00269951 41306
EUTELSAT 115 WEST B     
1 40425U 15010B   26159.96266212 -.00000008  00000+0  00000+0 0  9996
2 40425   0.0228 162.5014 0000097 167.0892 159.4034  1.00271121 41317
EXPRESS-AM7             
1 40505U 15012A   26161.27658633  .00000168  00000+0  00000+0 0  9992
2 40505   0.0142 304.5681 0003143 146.8216 306.8423  1.00273640 40934
BEIDOU-3S IGSO-1S       
1 40549U 15019A   26160.88590677 -.00000175  00000+0  00000+0 0  9995
2 40549  49.2105 295.5512 0038643 190.9335 182.7618  1.00252007 41003
THOR 7                  
1 40613U 15022A   26161.41106412  .00000009  00000+0  00000+0 0  9996
2 40613   0.0363 125.8268 0002530 315.0995 325.1740  1.00271343 40740
TURKMENALEM52E/MONACOSAT
1 40617U 15023A   26161.51919810  .00000121  00000+0  00000+0 0  9991
2 40617   0.0142  41.2744 0002828  39.6642  56.8873  1.00273557 40785
DIRECTV 15              
1 40663U 15026A   26161.24830156 -.00000085  00000+0  00000+0 0  9990
2 40663   0.0184   3.7345 0000654 280.2777 321.1253  1.00269531 40394
SKY MEXICO-1            
1 40664U 15026B   26161.32431434 -.00000217  00000+0  00000+0 0  9993
2 40664   0.0155 310.8688 0002096 147.0453 198.7302  1.00270910 40383
METEOSAT-11 (MSG-4)     
1 40732U 15034A   26161.27051963  .00000081  00000+0  00000+0 0  9995
2 40732   3.1848  71.1496 0001721   7.0467 287.2978  1.00278178  7144
STAR ONE C4             
1 40733U 15034B   26161.32604770 -.00000248  00000+0  00000+0 0  9998
2 40733   0.0250  15.7127 0002211  52.1415 238.2220  1.00272274 39942
WGS F7 (USA 263)        
1 40746U 15036A   26161.16067212  .00000035  00000+0  00000+0 0  9993
2 40746   0.0022 358.4484 0000480 321.3767 171.5229  1.00271044 39800
INTELSAT 34 (IS-34)     
1 40874U 15039A   26161.32890771 -.00000268  00000+0  00000+0 0  9999
2 40874   0.0112 323.8665 0000358  11.9971 345.7535  1.00270209 39562
EUTELSAT 8 WEST B       
1 40875U 15039B   26161.33835441 -.00000048  00000+0  00000+0 0  9990
2 40875   0.0638   0.3340 0003882  75.9580 296.2142  1.00271532 39580
GSAT-6                  
1 40880U 15041A   26161.42753411 -.00000143  00000+0  00000+0 0  9991
2 40880   1.9027  82.6771 0003420 351.9617  60.5803  1.00271205 39533
INMARSAT 5-F3           
1 40882U 15042A   26161.09035882  .00000068  00000+0  00000+0 0  9997
2 40882   0.0189   5.0391 0000131   2.5911 102.9963  1.00269424 39508
MUOS-4                  
1 40887U 15044A   26161.23378015 -.00000078  00000+0  00000+0 0  9990
2 40887   4.3162  42.1931 0059308   4.8119  10.7835  1.00271486 39491
TJS-1                   
1 40892U 15046A   26161.51321569 -.00000138  00000+0  00000+0 0  9998
2 40892   0.3052  84.9748 0005626 356.1004 157.6173  1.00271880 39507
EXPRESS-AM8             
1 40895U 15048A   26160.29424391 -.00000095  00000+0  00000+0 0  9996
2 40895   0.0164 284.6677 0000207 106.8020 318.1378  1.00271280 39267
BEIDOU-3S IGSO-2S       
1 40938U 15053A   26160.87932326 -.00000151  00000+0  00000+0 0  9999
2 40938  49.2333 258.8715 0065277 191.8328 219.6473  1.00261220 39283
SKY MUSTER 1 (NBN1A)    
1 40940U 15054A   26161.36772780  .00000000  00000+0  00000+0 0  9996
2 40940   0.0232 336.9203 0001704 112.2659  82.1699  1.00268852 39199
ARSAT 2                 
1 40941U 15054B   26161.32388102 -.00000207  00000+0  00000+0 0  9994
2 40941   0.0167  24.0926 0001931  44.0615 226.1182  1.00269174 39230
MORELOS 3               
1 40946U 15056A   26161.44836416 -.00000028  00000+0  00000+0 0  9991
2 40946   3.1816  14.9024 0001468 358.1239 294.0776  1.00271847 39214
APSTAR-9                
1 40982U 15059A   26161.51061569 -.00000249  00000+0  00000+0 0  9996
2 40982   0.0187  12.7967 0002382 170.6844  41.2076  1.00269119 39054
TURKSAT 4B              
1 40984U 15060A   26161.20723808  .00000133  00000+0  00000+0 0  9998
2 40984   0.0157  45.7848 0002361  19.7104 317.6812  1.00269139 39023
