OBJECT_NAME,OBJECT_ID,EPOCH,MEAN_MOTION,ECCENTRICITY,INCLINATION,RA_OF_ASC_NODE,ARG_OF_PERICENTER,MEAN_ANOMALY,EPHEMERIS_TYPE,CLASSIFICATION_TYPE,NORAD_CAT_ID,ELEMENT_SET_NO,REV_AT_EPOCH,BSTAR,MEAN_MOTION_DOT,MEAN_MOTION_DDOT
EUTELSAT 53A,2014-064A,2026-06-09T05:02:06.817632,1.00270479,.0000791,0.0145,284.0351,258.5594,203.5265,0,U,40277,999,4148,0,.115E-5,0
GSAT-16,2014-078A,2026-06-10T11:39:38.779200,1.00272450,.0007657,0.0716,92.2422,353.5465,43.0470,0,U,40332,999,4204,0,.102E-5,0
DIRECTV 14,2014-078B,2026-06-09T01:17:09.208320,1.00271044,.00002356,0.0091,1.3268,206.1301,330.0282,0,U,40333,999,4196,0,-.109E-5,0
YAMAL 401,2014-082A,2026-06-09T17:32:21.533856,1.00273523,.00005876,0.0122,251.8924,232.2841,126.9842,0,U,40345,999,4184,0,-.212E-5,0
ASTRA 2G,2014-089A,2026-06-10T04:52:10.967808,1.00271651,.0004829,0.0525,19.0031,42.3125,298.4832,0,U,40364,999,4189,0,.167E-5,0
FENGYUN 2G,2014-090A,2026-06-09T20:00:10.522368,1.00276216,.00035152,5.6193,72.9049,153.2834,71.6860,0,U,40367,999,4192,0,-.287E-5,0
MUOS-3,2015-002A,2026-06-10T08:05:14.011872,1.00271928,.0051646,4.5083,43.4972,178.3855,142.6888,0,U,40374,999,4151,0,-.113E-5,0
INMARSAT 5-F2,2015-005A,2026-06-10T07:53:52.600992,1.00271617,.0000483,0.0182,351.4709,250.7950,79.8962,0,U,40384,999,4092,0,-.268E-5,0
ABS-3A,2015-010A,2026-06-10T03:59:38.914368,1.00269951,.00018935,0.0057,21.9934,14.1874,279.2427,0,U,40424,999,4130,0,-.9E-7,0
EUTELSAT 115 WEST B,2015-010B,2026-06-08T23:06:14.007168,1.00271121,.00000972,0.0228,162.5014,167.0892,159.4034,0,U,40425,999,4131,0,-.8E-7,0
EXPRESS-AM7,2015-012A,2026-06-10T06:38:17.058912,1.00273640,.0003143,0.0142,304.5681,146.8216,306.8423,0,U,40505,999,4093,0,.168E-5,0
BEIDOU-3S IGSO-1S,2015-019A,2026-06-09T21:15:42.344928,1.00252007,.00386437,49.2105,295.5512,190.9335,182.7618,0,U,40549,999,4100,0,-.175E-5,0
THOR 7,2015-022A,2026-06-10T09:51:55.939968,1.00271343,.000253,0.0363,125.8268,315.0995,325.1740,0,U,40613,999,4074,0,.9E-7,0
TURKMENALEM52E/MONACOSAT,2015-023A,2026-06-10T12:27:38.715840,1.00273557,.0002828,0.0142,41.2744,39.6642,56.8873,0,U,40617,999,4078,0,.121E-5,0
DIRECTV 15,2015-026A,2026-06-10T05:57:33.254784,1.00269531,.0000654,0.0184,3.7345,280.2777,321.1253,0,U,40663,999,4039,0,-.85E-6,0
SKY MEXICO-1,2015-026B,2026-06-10T07:47:00.758976,1.00270910,.0002096,0.0155,310.8688,147.0453,198.7302,0,U,40664,999,4038,0,-.217E-5,0
METEOSAT-11 (MSG-4),2015-034A,2026-06-10T06:29:32.896032,1.00278178,.0001721,3.1848,71.1496,7.0467,287.2978,0,U,40732,999,714,0,.81E-6,0
STAR ONE C4,2015-034B,2026-06-10T07:49:30.521280,1.00272274,.0002211,0.0250,15.7127,52.1415,238.2220,0,U,40733,999,3994,0,-.248E-5,0
WGS F7 (USA 263),2015-036A,2026-06-10T03:51:22.071168,1.00271044,.000048,0.0022,358.4484,321.3767,171.5229,0,U,40746,999,3980,0,.35E-6,0
INTELSAT 34 (IS-34),2015-039A,2026-06-10T07:53:37.626144,1.00270209,.0000358,0.0112,323.8665,11.9971,345.7535,0,U,40874,999,3956,0,-.268E-5,0
EUTELSAT 8 WEST B,2015-039B,2026-06-10T08:07:13.821024,1.00271532,.0003882,0.0638,0.3340,75.9580,296.2142,0,U,40875,999,3958,0,-.48E-6,0
GSAT-6,2015-041A,2026-06-10T10:15:38.947104,1.00271205,.000342,1.9027,82.6771,351.9617,60.5803,0,U,40880,999,3953,0,-.143E-5,0
INMARSAT 5-F3,2015-042A,2026-06-10T02:10:07.002048,1.00269424,.00001317,0.0189,5.0391,2.5911,102.9963,0,U,40882,999,3950,0,.68E-6,0
MUOS-4,2015-044A,2026-06-10T05:36:38.604960,1.00271486,.0059308,4.3162,42.1931,4.8119,10.7835,0,U,40887,999,3949,0,-.78E-6,0
TJS-1,2015-046A,2026-06-10T12:19:01.835616,1.00271880,.0005626,0.3052,84.9748,356.1004,157.6173,0,U,40892,999,3950,0,-.138E-5,0
EXPRESS-AM8,2015-048A,2026-06-09T07:03:42.673824,1.00271280,.00002077,0.0164,284.6677,106.8020,318.1378,0,U,40895,999,3926,0,-.95E-6,0
BEIDOU-3S IGSO-2S,2015-053A,2026-06-09T21:06:13.529664,1.00261220,.00652774,49.2333,258.8715,191.8328,219.6473,0,U,40938,999,3928,0,-.151E-5,0
SKY MUSTER 1 (NBN1A),2015-054A,2026-06-10T08:49:31.681920,1.00268852,.0001704,0.0232,336.9203,112.2659,82.1699,0,U,40940,999,3919,0,0,0
ARSAT 2,2015-054B,2026-06-10T07:46:23.320128,1.00269174,.0001931,0.0167,24.0926,44.0615,226.1182,0,U,40941,999,3923,0,-.207E-5,0
MORELOS 3,2015-056A,2026-06-10T10:45:38.663424,1.00271847,.0001468,3.1816,14.9024,358.1239,294.0776,0,U,40946,999,3921,0,-.28E-6,0
APSTAR-9,2015-059A,2026-06-10T12:15:17.195616,1.00269119,.0002382,0.0187,12.7967,170.6844,41.2076,0,U,40982,999,3905,0,-.249E-5,0
TURKSAT 4B,2015-060A,2026-06-10T04:58:25.370112,1.00269139,.0002361,0.0157,45.7848,19.7104,317.6812,0,U,40984,999,3902,0,.133E-5,0
